IRIDIUM 136             
1 42962U 17061H   24105.77618877  .00000189  00000+0  60562-4 0  9991
2 42962  86.4016 356.8266 0002425  90.5722 269.5752 14.34218641341114
